K24W77K 20.64  0.15 K24AH  30.58264  125.33769  238.39996   18.69667  0.1047582  0.37211288   1.9143422  7 MPO886945    10   1   12 days 1.05 M-v 3Ek MPCLINUX   0006          2024 WK77          20241204
K24X24A 18.30  0.15 K24AH  10.09746  110.21613  300.43041   12.31373  0.3144438  0.17576391   3.1563337  7 MPO887092    12   1   11 days 0.95 M-v 3Ek MPCLINUX   0000          2024 XA24          20241222
K23RE1N 18.18  0.15 K24AH  82.43900  159.10438  176.42987    6.01924  0.1677444  0.18174574   3.0866915  8 MPO792800    10   1   14 days 0.56 M-v 3Ek Veres      2000          2023 RN141         20230920
K23S82V 18.45  0.15 K24AH  42.01827   50.31378  356.82377   15.76800  0.2445582  0.18152140   3.0892341  8 MPO811344    11   1   26 days 0.36 M-v 3Ek Veres      2000          2023 SV82          20231015
K23T19M 17.67  0.15 K24AH  87.47601  328.91320   25.26181   18.38003  0.0873941  0.18502026   3.0501640  8 MPO775442    16   1   11 days 0.65 M-v 3Ek Veres      2000          2023 TM19          20231016
K23T30Y 19.18  0.15 K24AH 106.37748  143.16990  219.25342   11.16169  0.1146468  0.24934075   2.5000031  8 MPO775481    23   1   10 days 0.32 M-v 3Ek Veres      2000          2023 TY30          20231016
K23T43D 19.60  0.15 K24AH  86.04987  182.17422  186.58755    8.35336  0.2203225  0.21700666   2.7425465  8 MPO775521    15   1   14 days 0.24 M-v 3Ek Veres      2000          2023 TD43          20231019
K23T84E 19.71  0.15 K24AH 119.95112  325.38513   24.80923    3.59443  0.1932458  0.26825974   2.3810346  8 MPO775651    23   1   17 days 0.33 M-v 3Ek Veres      2000          2023 TE84          20231022
K23X37W 18.74  0.15 K24AH  94.38666  130.34203  274.70124    8.56187  0.2907583  0.21381170   2.7698000  8 MPO811414    14   1   21 days 0.32 M-v 3Ek Veres      2000          2023 XW37          20240105
K24H07D 17.57  0.15 K24AH 346.97946  222.80229   53.93367   16.89959  0.1751714  0.17396338   3.1780751  8 MPO825872    12   1    8 days 0.70 M-v 3Ek Veres      2000          2024 HD7           20240506
K24S25O 20.20  0.15 K24AH 357.80663  136.39912  236.75142    2.57176  0.2375608  0.28954301   2.2628755  8 MPO872860    12   1   12 days 0.85 M-v 3Ek MPCLINUX   0000          2024 SO25          20241006
K24S39A 18.36  0.15 K24AH 317.81847   56.76271   13.94882   10.90376  0.1407319  0.20236584   2.8732797  8 MPO872903    11   1   15 days 0.73 M-v 3Ek MPCLINUX   0000          2024 SA39          20241009
K23S04B 18.55  0.15 K24AH  60.48578  258.48876  184.04969   22.20066  0.4562015  0.18189220   3.0850343  9 MPO775116    10   1    3 days 0.44 M-v 3Ek Bell       2000          2023 SB4           20230922
K23T29P 19.77  0.15 K24AH 117.99649  176.87153  171.18042    1.04428  0.2020316  0.26648056   2.3916210  9 MPO775476    14   1   11 days 0.31 M-v 3Ek Veres      2000          2023 TP29          20231016
K24W11O 18.68  0.15 K24AH  26.08614  172.12989  201.77221    0.52854  0.1786936  0.18547093   3.0452210  9 MPO886743    11   1    7 days 0.60 M-v 3Ek MPCLINUX   0000          2024 WO11          20241129
